ONEWEB-0086             
1 45456U 20020AJ  23238.87528329  .00000575  00000+0  15857-2 0  9994
2 45456  87.8906 224.7134 0001934 102.8201 257.3144 13.11417962168228
ONEWEB-0088             
1 45457U 20020AK  23238.47047232  .00000203  00000+0  53605-3 0  9992
2 45457  87.8903 224.7748 0001958  84.6726 275.4625 13.11416827168103
ONEWEB-0102             
1 47258U 20100A   23238.89698647 -.00000279  00000+0 -81198-3 0  9993
2 47258  87.9037 194.4711 0002412  78.8134 281.3266 13.12443785130245
ONEWEB-0109             
1 47259U 20100B   23238.83135549 -.00000381  00000+0 -10951-2 0  9997
2 47259  87.8974 194.4962 0002075  82.4192 277.7172 13.12441111130069
ONEWEB-0110             
1 47260U 20100C   23238.85465581  .00000172  00000+0  44400-3 0  9996
2 47260  87.9039 194.4616 0002273  84.2225 275.9162 13.12443435130236
ONEWEB-0111             
1 47261U 20100D   23238.88641989  .00000077  00000+0  17847-3 0  9997
2 47261  87.9054 194.4399 0002191  80.6444 279.4932 13.12436805130073
ONEWEB-0114             
1 47262U 20100E   23238.84193626 -.00000196  00000+0 -58087-3 0  9999
2 47262  87.9038 194.4750 0002491  71.1514 288.9884 13.12444322130022
ONEWEB-0117             
1 47263U 20100F   23238.83346191 -.00000355  00000+0 -10234-2 0  9994
2 47263  87.8972 194.5059 0002074  82.0815 278.0549 13.12443102130038
